{
  "Asia": [
    {
      "name": "Afghanistan",
      "code": "AF",
      "emoji": "ðŸ‡¦ðŸ‡«",
      "unicode": "U+1F1E6 U+1F1EB",
      "dial_code": "+93"
    },
    {
      "name": "Armenia",
      "code": "AM",
      "emoji": "ðŸ‡¦ðŸ‡²",
      "unicode": "U+1F1E6 U+1F1F2",
      "dial_code": "+374"
    },
    {
      "name": "Azerbaijan",
      "code": "AZ",
      "emoji": "ðŸ‡¦ðŸ‡¿",
      "unicode": "U+1F1E6 U+1F1FF",
      "dial_code": "+994"
    },
    {
      "name": "Bahrain",
      "code": "BH",
      "emoji": "ðŸ‡§ðŸ‡­",
      "unicode": "U+1F1E7 U+1F1ED",
      "dial_code": "+973"
    },
    {
      "name": "Bangladesh",
      "code": "BD",
      "emoji": "ðŸ‡§ðŸ‡©",
      "unicode": "U+1F1E7 U+1F1E9",
      "dial_code": "+880"
    },
    {
      "name": "Bhutan",
      "code": "BT",
      "emoji": "ðŸ‡§ðŸ‡¹",
      "unicode": "U+1F1E7 U+1F1F9",
      "dial_code": "+975"
    },
    {
      "name": "British Indian Ocean Territory",
      "code": "IO",
      "emoji": "ðŸ‡®ðŸ‡´",
      "unicode": "U+1F1EE U+1F1F4",
      "dial_code": "+246"
    },
    {
      "name": "Brunei",
      "code": "BN",
      "emoji": "ðŸ‡§ðŸ‡³",
      "unicode": "U+1F1E7 U+1F1F3",
      "dial_code": "+673"
    },
    {
      "name": "Cambodia",
      "code": "KH",
      "emoji": "ðŸ‡°ðŸ‡­",
      "unicode": "U+1F1F0 U+1F1ED",
      "dial_code": "+855"
    },
    {
      "name": "China",
      "code": "CN",
      "emoji": "ðŸ‡¨ðŸ‡³",
      "unicode": "U+1F1E8 U+1F1F3",
      "dial_code": "+86"
    },
    {
      "name": "Georgia",
      "code": "GE",
      "emoji": "ðŸ‡¬ðŸ‡ª",
      "unicode": "U+1F1EC U+1F1EA",
      "dial_code": "+995"
    },
    {
      "name": "Hong Kong SAR China",
      "code": "HK",
      "emoji": "ðŸ‡­ðŸ‡°",
      "unicode": "U+1F1ED U+1F1F0",
      "dial_code": "+852"
    },
    {
      "name": "India",
      "code": "IN",
      "emoji": "ðŸ‡®ðŸ‡³",
      "unicode": "U+1F1EE U+1F1F3",
      "dial_code": "+91"
    },
    {
      "name": "Indonesia",
      "code": "ID",
      "emoji": "ðŸ‡®ðŸ‡©",
      "unicode": "U+1F1EE U+1F1E9",
      "dial_code": "+62"
    },
    {
      "name": "Iran",
      "code": "IR",
      "emoji": "ðŸ‡®ðŸ‡·",
      "unicode": "U+1F1EE U+1F1F7",
      "dial_code": "+98"
    },
    {
      "name": "Iraq",
      "code": "IQ",
      "emoji": "ðŸ‡®ðŸ‡¶",
      "unicode": "U+1F1EE U+1F1F6",
      "dial_code": "+964"
    },
    {
      "name": "Israel",
      "code": "IL",
      "emoji": "ðŸ‡®ðŸ‡±",
      "unicode": "U+1F1EE U+1F1F1",
      "dial_code": "+972"
    },
    {
      "name": "Japan",
      "code": "JP",
      "emoji": "ðŸ‡¯ðŸ‡µ",
      "unicode": "U+1F1EF U+1F1F5",
      "dial_code": "+81"
    },
    {
      "name": "Jordan",
      "code": "JO",
      "emoji": "ðŸ‡¯ðŸ‡´",
      "unicode": "U+1F1EF U+1F1F4",
      "dial_code": "+962"
    },
    {
      "name": "Kazakhstan",
      "code": "KZ",
      "emoji": "ðŸ‡°ðŸ‡¿",
      "unicode": "U+1F1F0 U+1F1FF",
      "dial_code": "+77"
    },
    {
      "name": "Kuwait",
      "code": "KW",
      "emoji": "ðŸ‡°ðŸ‡¼",
      "unicode": "U+1F1F0 U+1F1FC",
      "dial_code": "+965"
    },
    {
      "name": "Kyrgyzstan",
      "code": "KG",
      "emoji": "ðŸ‡°ðŸ‡¬",
      "unicode": "U+1F1F0 U+1F1EC",
      "dial_code": "+996"
    },
    {
      "name": "Laos",
      "code": "LA",
      "emoji": "ðŸ‡±ðŸ‡¦",
      "unicode": "U+1F1F1 U+1F1E6",
      "dial_code": "+856"
    },
    {
      "name": "Lebanon",
      "code": "LB",
      "emoji": "ðŸ‡±ðŸ‡§",
      "unicode": "U+1F1F1 U+1F1E7",
      "dial_code": "+961"
    },
    {
      "name": "Macao SAR China",
      "code": "MO",
      "emoji": "ðŸ‡²ðŸ‡´",
      "unicode": "U+1F1F2 U+1F1F4",
      "dial_code": "+853"
    },
    {
      "name": "Malaysia",
      "code": "MY",
      "emoji": "ðŸ‡²ðŸ‡¾",
      "unicode": "U+1F1F2 U+1F1FE",
      "dial_code": "+60"
    },
    {
      "name": "Maldives",
      "code": "MV",
      "emoji": "ðŸ‡²ðŸ‡»",
      "unicode": "U+1F1F2 U+1F1FB",
      "dial_code": "+960"
    },
    {
      "name": "Mongolia",
      "code": "MN",
      "emoji": "ðŸ‡²ðŸ‡³",
      "unicode": "U+1F1F2 U+1F1F3",
      "dial_code": "+976"
    },
    {
      "name": "Myanmar (Burma)",
      "code": "MM",
      "emoji": "ðŸ‡²ðŸ‡²",
      "unicode": "U+1F1F2 U+1F1F2",
      "dial_code": "+95"
    },
    {
      "name": "Nepal",
      "code": "NP",
      "emoji": "ðŸ‡³ðŸ‡µ",
      "unicode": "U+1F1F3 U+1F1F5",
      "dial_code": "+977"
    },
    {
      "name": "North Korea",
      "code": "KP",
      "emoji": "ðŸ‡°ðŸ‡µ",
      "unicode": "U+1F1F0 U+1F1F5",
      "dial_code": "+850"
    },
    {
      "name": "Oman",
      "code": "OM",
      "emoji": "ðŸ‡´ðŸ‡²",
      "unicode": "U+1F1F4 U+1F1F2",
      "dial_code": "+968"
    },
    {
      "name": "Pakistan",
      "code": "PK",
      "emoji": "ðŸ‡µðŸ‡°",
      "unicode": "U+1F1F5 U+1F1F0",
      "dial_code": "+92"
    },
    {
      "name": "Palestinian Territories",
      "code": "PS",
      "emoji": "ðŸ‡µðŸ‡¸",
      "unicode": "U+1F1F5 U+1F1F8",
      "dial_code": "+970"
    },
    {
      "name": "Philippines",
      "code": "PH",
      "emoji": "ðŸ‡µðŸ‡­",
      "unicode": "U+1F1F5 U+1F1ED",
      "dial_code": "+63"
    },
    {
      "name": "Qatar",
      "code": "QA",
      "emoji": "ðŸ‡¶ðŸ‡¦",
      "unicode": "U+1F1F6 U+1F1E6",
      "dial_code": "+974"
    },
    {
      "name": "Saudi Arabia",
      "code": "SA",
      "emoji": "ðŸ‡¸ðŸ‡¦",
      "unicode": "U+1F1F8 U+1F1E6",
      "dial_code": "+966"
    },
    {
      "name": "Singapore",
      "code": "SG",
      "emoji": "ðŸ‡¸ðŸ‡¬",
      "unicode": "U+1F1F8 U+1F1EC",
      "dial_code": "+65"
    },
    {
      "name": "South Korea",
      "code": "KR",
      "emoji": "ðŸ‡°ðŸ‡·",
      "unicode": "U+1F1F0 U+1F1F7",
      "dial_code": "+82"
    },
    {
      "name": "Sri Lanka",
      "code": "LK",
      "emoji": "ðŸ‡±ðŸ‡°",
      "unicode": "U+1F1F1 U+1F1F0",
      "dial_code": "+94"
    },
    {
      "name": "Syria",
      "code": "SY",
      "emoji": "ðŸ‡¸ðŸ‡¾",
      "unicode": "U+1F1F8 U+1F1FE",
      "dial_code": "+963"
    },
    {
      "name": "Taiwan",
      "code": "TW",
      "emoji": "ðŸ‡¹ðŸ‡¼",
      "unicode": "U+1F1F9 U+1F1FC",
      "dial_code": "+886"
    },
    {
      "name": "Tajikistan",
      "code": "TJ",
      "emoji": "ðŸ‡¹ðŸ‡¯",
      "unicode": "U+1F1F9 U+1F1EF",
      "dial_code": "+992"
    },
    {
      "name": "Thailand",
      "code": "TH",
      "emoji": "ðŸ‡¹ðŸ‡­",
      "unicode": "U+1F1F9 U+1F1ED",
      "dial_code": "+66"
    },
    {
      "name": "Timor-Leste",
      "code": "TL",
      "emoji": "ðŸ‡¹ðŸ‡±",
      "unicode": "U+1F1F9 U+1F1F1",
      "dial_code": "+670"
    },
    {
      "name": "Turkey",
      "code": "TR",
      "emoji": "ðŸ‡¹ðŸ‡·",
      "unicode": "U+1F1F9 U+1F1F7",
      "dial_code": "+90"
    },
    {
      "name": "Turkmenistan",
      "code": "TM",
      "emoji": "ðŸ‡¹ðŸ‡²",
      "unicode": "U+1F1F9 U+1F1F2",
      "dial_code": "+993"
    },
    {
      "name": "United Arab Emirates",
      "code": "AE",
      "emoji": "ðŸ‡¦ðŸ‡ª",
      "unicode": "U+1F1E6 U+1F1EA",
      "dial_code": "+971"
    },
    {
      "name": "Uzbekistan",
      "code": "UZ",
      "emoji": "ðŸ‡ºðŸ‡¿",
      "unicode": "U+1F1FA U+1F1FF",
      "dial_code": "+998"
    },
    {
      "name": "Vietnam",
      "code": "VN",
      "emoji": "ðŸ‡»ðŸ‡³",
      "unicode": "U+1F1FB U+1F1F3",
      "dial_code": "+84"
    },
    {
      "name": "Yemen",
      "code": "YE",
      "emoji": "ðŸ‡¾ðŸ‡ª",
      "unicode": "U+1F1FE U+1F1EA",
      "dial_code": "+967"
    }
  ],
  "Europe": [
    {
      "name": "Ã…land Islands",
      "code": "AX",
      "emoji": "ðŸ‡¦ðŸ‡½",
      "unicode": "U+1F1E6 U+1F1FD",
      "dial_code": "+358"
    },
    {
      "name": "Albania",
      "code": "AL",
      "emoji": "ðŸ‡¦ðŸ‡±",
      "unicode": "U+1F1E6 U+1F1F1",
      "dial_code": "+355"
    },
    {
      "name": "Andorra",
      "code": "AD",
      "emoji": "ðŸ‡¦ðŸ‡©",
      "unicode": "U+1F1E6 U+1F1E9",
      "dial_code": "+376"
    },
    {
      "name": "Austria",
      "code": "AT",
      "emoji": "ðŸ‡¦ðŸ‡¹",
      "unicode": "U+1F1E6 U+1F1F9",
      "dial_code": "+43"
    },
    {
      "name": "Belarus",
      "code": "BY",
      "emoji": "ðŸ‡§ðŸ‡¾",
      "unicode": "U+1F1E7 U+1F1FE",
      "dial_code": "+375"
    },
    {
      "name": "Belgium",
      "code": "BE",
      "emoji": "ðŸ‡§ðŸ‡ª",
      "unicode": "U+1F1E7 U+1F1EA",
      "dial_code": "+32"
    },
    {
      "name": "Bosnia & Herzegovina",
      "code": "BA",
      "emoji": "ðŸ‡§ðŸ‡¦",
      "unicode": "U+1F1E7 U+1F1E6",
      "dial_code": "+387"
    },
    {
      "name": "Bulgaria",
      "code": "BG",
      "emoji": "ðŸ‡§ðŸ‡¬",
      "unicode": "U+1F1E7 U+1F1EC",
      "dial_code": "+359"
    },
    {
      "name": "Croatia",
      "code": "HR",
      "emoji": "ðŸ‡­ðŸ‡·",
      "unicode": "U+1F1ED U+1F1F7",
      "dial_code": "+385"
    },
    {
      "name": "Cyprus",
      "code": "CY",
      "emoji": "ðŸ‡¨ðŸ‡¾",
      "unicode": "U+1F1E8 U+1F1FE",
      "dial_code": "+357"
    },
    {
      "name": "Czechia",
      "code": "CZ",
      "emoji": "ðŸ‡¨ðŸ‡¿",
      "unicode": "U+1F1E8 U+1F1FF",
      "dial_code": "+420"
    },
    {
      "name": "Denmark",
      "code": "DK",
      "emoji": "ðŸ‡©ðŸ‡°",
      "unicode": "U+1F1E9 U+1F1F0",
      "dial_code": "+45"
    },
    {
      "name": "Estonia",
      "code": "EE",
      "emoji": "ðŸ‡ªðŸ‡ª",
      "unicode": "U+1F1EA U+1F1EA",
      "dial_code": "+372"
    },
    {
      "name": "Faroe Islands",
      "code": "FO",
      "emoji": "ðŸ‡«ðŸ‡´",
      "unicode": "U+1F1EB U+1F1F4",
      "dial_code": "+298"
    },
    {
      "name": "Finland",
      "code": "FI",
      "emoji": "ðŸ‡«ðŸ‡®",
      "unicode": "U+1F1EB U+1F1EE",
      "dial_code": "+358"
    },
    {
      "name": "France",
      "code": "FR",
      "emoji": "ðŸ‡«ðŸ‡·",
      "unicode": "U+1F1EB U+1F1F7",
      "dial_code": "+33"
    },
    {
      "name": "Germany",
      "code": "DE",
      "emoji": "ðŸ‡©ðŸ‡ª",
      "unicode": "U+1F1E9 U+1F1EA",
      "dial_code": "+49"
    },
    {
      "name": "Gibraltar",
      "code": "GI",
      "emoji": "ðŸ‡¬ðŸ‡®",
      "unicode": "U+1F1EC U+1F1EE",
      "dial_code": "+350"
    },
    {
      "name": "Greece",
      "code": "GR",
      "emoji": "ðŸ‡¬ðŸ‡·",
      "unicode": "U+1F1EC U+1F1F7",
      "dial_code": "+30"
    },
    {
      "name": "Guernsey",
      "code": "GG",
      "emoji": "ðŸ‡¬ðŸ‡¬",
      "unicode": "U+1F1EC U+1F1EC",
      "dial_code": "+44"
    },
    {
      "name": "Hungary",
      "code": "HU",
      "emoji": "ðŸ‡­ðŸ‡º",
      "unicode": "U+1F1ED U+1F1FA",
      "dial_code": "+36"
    },
    {
      "name": "Iceland",
      "code": "IS",
      "emoji": "ðŸ‡®ðŸ‡¸",
      "unicode": "U+1F1EE U+1F1F8",
      "dial_code": "+354"
    },
    {
      "name": "Ireland",
      "code": "IE",
      "emoji": "ðŸ‡®ðŸ‡ª",
      "unicode": "U+1F1EE U+1F1EA",
      "dial_code": "+353"
    },
    {
      "name": "Isle of Man",
      "code": "IM",
      "emoji": "ðŸ‡®ðŸ‡²",
      "unicode": "U+1F1EE U+1F1F2",
      "dial_code": "+44"
    },
    {
      "name": "Italy",
      "code": "IT",
      "emoji": "ðŸ‡®ðŸ‡¹",
      "unicode": "U+1F1EE U+1F1F9",
      "dial_code": "+39"
    },
    {
      "name": "Jersey",
      "code": "JE",
      "emoji": "ðŸ‡¯ðŸ‡ª",
      "unicode": "U+1F1EF U+1F1EA",
      "dial_code": "+44"
    },
    {
      "name": "Latvia",
      "code": "LV",
      "emoji": "ðŸ‡±ðŸ‡»",
      "unicode": "U+1F1F1 U+1F1FB",
      "dial_code": "+371"
    },
    {
      "name": "Liechtenstein",
      "code": "LI",
      "emoji": "ðŸ‡±ðŸ‡®",
      "unicode": "U+1F1F1 U+1F1EE",
      "dial_code": "+423"
    },
    {
      "name": "Lithuania",
      "code": "LT",
      "emoji": "ðŸ‡±ðŸ‡¹",
      "unicode": "U+1F1F1 U+1F1F9",
      "dial_code": "+370"
    },
    {
      "name": "Luxembourg",
      "code": "LU",
      "emoji": "ðŸ‡±ðŸ‡º",
      "unicode": "U+1F1F1 U+1F1FA",
      "dial_code": "+352"
    },
    {
      "name": "Malta",
      "code": "MT",
      "emoji": "ðŸ‡²ðŸ‡¹",
      "unicode": "U+1F1F2 U+1F1F9",
      "dial_code": "+356"
    },
    {
      "name": "Moldova",
      "code": "MD",
      "emoji": "ðŸ‡²ðŸ‡©",
      "unicode": "U+1F1F2 U+1F1E9",
      "dial_code": "+373"
    },
    {
      "name": "Monaco",
      "code": "MC",
      "emoji": "ðŸ‡²ðŸ‡¨",
      "unicode": "U+1F1F2 U+1F1E8",
      "dial_code": "+377"
    },
    {
      "name": "Montenegro",
      "code": "ME",
      "emoji": "ðŸ‡²ðŸ‡ª",
      "unicode": "U+1F1F2 U+1F1EA",
      "dial_code": "+382"
    },
    {
      "name": "Netherlands",
      "code": "NL",
      "emoji": "ðŸ‡³ðŸ‡±",
      "unicode": "U+1F1F3 U+1F1F1",
      "dial_code": "+31"
    },
    {
      "name": "North Macedonia",
      "code": "MK",
      "emoji": "ðŸ‡²ðŸ‡°",
      "unicode": "U+1F1F2 U+1F1F0",
      "dial_code": "+389"
    },
    {
      "name": "Norway",
      "code": "NO",
      "emoji": "ðŸ‡³ðŸ‡´",
      "unicode": "U+1F1F3 U+1F1F4",
      "dial_code": "+47"
    },
    {
      "name": "Poland",
      "code": "PL",
      "emoji": "ðŸ‡µðŸ‡±",
      "unicode": "U+1F1F5 U+1F1F1",
      "dial_code": "+48"
    },
    {
      "name": "Portugal",
      "code": "PT",
      "emoji": "ðŸ‡µðŸ‡¹",
      "unicode": "U+1F1F5 U+1F1F9",
      "dial_code": "+351"
    },
    {
      "name": "Romania",
      "code": "RO",
      "emoji": "ðŸ‡·ðŸ‡´",
      "unicode": "U+1F1F7 U+1F1F4",
      "dial_code": "+40"
    },
    {
      "name": "Russia",
      "code": "RU",
      "emoji": "ðŸ‡·ðŸ‡º",
      "unicode": "U+1F1F7 U+1F1FA",
      "dial_code": "+7"
    },
    {
      "name": "San Marino",
      "code": "SM",
      "emoji": "ðŸ‡¸ðŸ‡²",
      "unicode": "U+1F1F8 U+1F1F2",
      "dial_code": "+378"
    },
    {
      "name": "Serbia",
      "code": "RS",
      "emoji": "ðŸ‡·ðŸ‡¸",
      "unicode": "U+1F1F7 U+1F1F8",
      "dial_code": "+381"
    },
    {
      "name": "Slovakia",
      "code": "SK",
      "emoji": "ðŸ‡¸ðŸ‡°",
      "unicode": "U+1F1F8 U+1F1F0",
      "dial_code": "+421"
    },
    {
      "name": "Slovenia",
      "code": "SI",
      "emoji": "ðŸ‡¸ðŸ‡®",
      "unicode": "U+1F1F8 U+1F1EE",
      "dial_code": "+386"
    },
    {
      "name": "Spain",
      "code": "ES",
      "emoji": "ðŸ‡ªðŸ‡¸",
      "unicode": "U+1F1EA U+1F1F8",
      "dial_code": "+34"
    },
    {
      "name": "Svalbard & Jan Mayen",
      "code": "SJ",
      "emoji": "ðŸ‡¸ðŸ‡¯",
      "unicode": "U+1F1F8 U+1F1EF",
      "dial_code": "+47"
    },
    {
      "name": "Sweden",
      "code": "SE",
      "emoji": "ðŸ‡¸ðŸ‡ª",
      "unicode": "U+1F1F8 U+1F1EA",
      "dial_code": "+46"
    },
    {
      "name": "Switzerland",
      "code": "CH",
      "emoji": "ðŸ‡¨ðŸ‡­",
      "unicode": "U+1F1E8 U+1F1ED",
      "dial_code": "+41"
    },
    {
      "name": "Ukraine",
      "code": "UA",
      "emoji": "ðŸ‡ºðŸ‡¦",
      "unicode": "U+1F1FA U+1F1E6",
      "dial_code": "+380"
    },
    {
      "name": "United Kingdom",
      "code": "GB",
      "emoji": "ðŸ‡¬ðŸ‡§",
      "unicode": "U+1F1EC U+1F1E7",
      "dial_code": "+44"
    },
    {
      "name": "Vatican City",
      "code": "VA",
      "emoji": "ðŸ‡»ðŸ‡¦",
      "unicode": "U+1F1FB U+1F1E6",
      "dial_code": "+379"
    }
  ],
  "Africa": [
    {
      "name": "Algeria",
      "code": "DZ",
      "emoji": "ðŸ‡©ðŸ‡¿",
      "unicode": "U+1F1E9 U+1F1FF",
      "dial_code": "+213"
    },
    {
      "name": "Angola",
      "code": "AO",
      "emoji": "ðŸ‡¦ðŸ‡´",
      "unicode": "U+1F1E6 U+1F1F4",
      "dial_code": "+244"
    },
    {
      "name": "Benin",
      "code": "BJ",
      "emoji": "ðŸ‡§ðŸ‡¯",
      "unicode": "U+1F1E7 U+1F1EF",
      "dial_code": "+229"
    },
    {
      "name": "Botswana",
      "code": "BW",
      "emoji": "ðŸ‡§ðŸ‡¼",
      "unicode": "U+1F1E7 U+1F1FC",
      "dial_code": "+267"
    },
    {
      "name": "Burkina Faso",
      "code": "BF",
      "emoji": "ðŸ‡§ðŸ‡«",
      "unicode": "U+1F1E7 U+1F1EB",
      "dial_code": "+226"
    },
    {
      "name": "Burundi",
      "code": "BI",
      "emoji": "ðŸ‡§ðŸ‡®",
      "unicode": "U+1F1E7 U+1F1EE",
      "dial_code": "+257"
    },
    {
      "name": "Cameroon",
      "code": "CM",
      "emoji": "ðŸ‡¨ðŸ‡²",
      "unicode": "U+1F1E8 U+1F1F2",
      "dial_code": "+237"
    },
    {
      "name": "Cape Verde",
      "code": "CV",
      "emoji": "ðŸ‡¨ðŸ‡»",
      "unicode": "U+1F1E8 U+1F1FB",
      "dial_code": "+238"
    },
    {
      "name": "Central African Republic",
      "code": "CF",
      "emoji": "ðŸ‡¨ðŸ‡«",
      "unicode": "U+1F1E8 U+1F1EB",
      "dial_code": "+236"
    },
    {
      "name": "Chad",
      "code": "TD",
      "emoji": "ðŸ‡¹ðŸ‡©",
      "unicode": "U+1F1F9 U+1F1E9",
      "dial_code": "+235"
    },
    {
      "name": "Comoros",
      "code": "KM",
      "emoji": "ðŸ‡°ðŸ‡²",
      "unicode": "U+1F1F0 U+1F1F2",
      "dial_code": "+269"
    },
    {
      "name": "Congo - Brazzaville",
      "code": "CG",
      "emoji": "ðŸ‡¨ðŸ‡¬",
      "unicode": "U+1F1E8 U+1F1EC",
      "dial_code": "+242"
    },
    {
      "name": "Congo - Kinshasa",
      "code": "CD",
      "emoji": "ðŸ‡¨ðŸ‡©",
      "unicode": "U+1F1E8 U+1F1E9",
      "dial_code": "+243"
    },
    {
      "name": "CÃ´te dâ€™Ivoire",
      "code": "CI",
      "emoji": "ðŸ‡¨ðŸ‡®",
      "unicode": "U+1F1E8 U+1F1EE",
      "dial_code": "+225"
    },
    {
      "name": "Djibouti",
      "code": "DJ",
      "emoji": "ðŸ‡©ðŸ‡¯",
      "unicode": "U+1F1E9 U+1F1EF",
      "dial_code": "+253"
    },
    {
      "name": "Egypt",
      "code": "EG",
      "emoji": "ðŸ‡ªðŸ‡¬",
      "unicode": "U+1F1EA U+1F1EC",
      "dial_code": "+20"
    },
    {
      "name": "Equatorial Guinea",
      "code": "GQ",
      "emoji": "ðŸ‡¬ðŸ‡¶",
      "unicode": "U+1F1EC U+1F1F6",
      "dial_code": "+240"
    },
    {
      "name": "Eritrea",
      "code": "ER",
      "emoji": "ðŸ‡ªðŸ‡·",
      "unicode": "U+1F1EA U+1F1F7",
      "dial_code": "+291"
    },
    {
      "name": "Eswatini",
      "code": "SZ",
      "emoji": "ðŸ‡¸ðŸ‡¿",
      "unicode": "U+1F1F8 U+1F1FF",
      "dial_code": "+268"
    },
    {
      "name": "Ethiopia",
      "code": "ET",
      "emoji": "ðŸ‡ªðŸ‡¹",
      "unicode": "U+1F1EA U+1F1F9",
      "dial_code": "+251"
    },
    {
      "name": "Gabon",
      "code": "GA",
      "emoji": "ðŸ‡¬ðŸ‡¦",
      "unicode": "U+1F1EC U+1F1E6",
      "dial_code": "+241"
    },
    {
      "name": "Gambia",
      "code": "GM",
      "emoji": "ðŸ‡¬ðŸ‡²",
      "unicode": "U+1F1EC U+1F1F2",
      "dial_code": "+220"
    },
    {
      "name": "Ghana",
      "code": "GH",
      "emoji": "ðŸ‡¬ðŸ‡­",
      "unicode": "U+1F1EC U+1F1ED",
      "dial_code": "+233"
    },
    {
      "name": "Guinea",
      "code": "GN",
      "emoji": "ðŸ‡¬ðŸ‡³",
      "unicode": "U+1F1EC U+1F1F3",
      "dial_code": "+224"
    },
    {
      "name": "Guinea-Bissau",
      "code": "GW",
      "emoji": "ðŸ‡¬ðŸ‡¼",
      "unicode": "U+1F1EC U+1F1FC",
      "dial_code": "+245"
    },
    {
      "name": "Kenya",
      "code": "KE",
      "emoji": "ðŸ‡°ðŸ‡ª",
      "unicode": "U+1F1F0 U+1F1EA",
      "dial_code": "+254"
    },
    {
      "name": "Lesotho",
      "code": "LS",
      "emoji": "ðŸ‡±ðŸ‡¸",
      "unicode": "U+1F1F1 U+1F1F8",
      "dial_code": "+266"
    },
    {
      "name": "Liberia",
      "code": "LR",
      "emoji": "ðŸ‡±ðŸ‡·",
      "unicode": "U+1F1F1 U+1F1F7",
      "dial_code": "+231"
    },
    {
      "name": "Libya",
      "code": "LY",
      "emoji": "ðŸ‡±ðŸ‡¾",
      "unicode": "U+1F1F1 U+1F1FE",
      "dial_code": "+218"
    },
    {
      "name": "Madagascar",
      "code": "MG",
      "emoji": "ðŸ‡²ðŸ‡¬",
      "unicode": "U+1F1F2 U+1F1EC",
      "dial_code": "+261"
    },
    {
      "name": "Malawi",
      "code": "MW",
      "emoji": "ðŸ‡²ðŸ‡¼",
      "unicode": "U+1F1F2 U+1F1FC",
      "dial_code": "+265"
    },
    {
      "name": "Mali",
      "code": "ML",
      "emoji": "ðŸ‡²ðŸ‡±",
      "unicode": "U+1F1F2 U+1F1F1",
      "dial_code": "+223"
    },
    {
      "name": "Mauritania",
      "code": "MR",
      "emoji": "ðŸ‡²ðŸ‡·",
      "unicode": "U+1F1F2 U+1F1F7",
      "dial_code": "+222"
    },
    {
      "name": "Mauritius",
      "code": "MU",
      "emoji": "ðŸ‡²ðŸ‡º",
      "unicode": "U+1F1F2 U+1F1FA",
      "dial_code": "+230"
    },
    {
      "name": "Mayotte",
      "code": "YT",
      "emoji": "ðŸ‡¾ðŸ‡¹",
      "unicode": "U+1F1FE U+1F1F9",
      "dial_code": "+262"
    },
    {
      "name": "Morocco",
      "code": "MA",
      "emoji": "ðŸ‡²ðŸ‡¦",
      "unicode": "U+1F1F2 U+1F1E6",
      "dial_code": "+212"
    },
    {
      "name": "Mozambique",
      "code": "MZ",
      "emoji": "ðŸ‡²ðŸ‡¿",
      "unicode": "U+1F1F2 U+1F1FF",
      "dial_code": "+258"
    },
    {
      "name": "Namibia",
      "code": "NA",
      "emoji": "ðŸ‡³ðŸ‡¦",
      "unicode": "U+1F1F3 U+1F1E6",
      "dial_code": "+264"
    },
    {
      "name": "Niger",
      "code": "NE",
      "emoji": "ðŸ‡³ðŸ‡ª",
      "unicode": "U+1F1F3 U+1F1EA",
      "dial_code": "+227"
    },
    {
      "name": "Nigeria",
      "code": "NG",
      "emoji": "ðŸ‡³ðŸ‡¬",
      "unicode": "U+1F1F3 U+1F1EC",
      "dial_code": "+234"
    },
    {
      "name": "RÃ©union",
      "code": "RE",
      "emoji": "ðŸ‡·ðŸ‡ª",
      "unicode": "U+1F1F7 U+1F1EA",
      "dial_code": "+262"
    },
    {
      "name": "Rwanda",
      "code": "RW",
      "emoji": "ðŸ‡·ðŸ‡¼",
      "unicode": "U+1F1F7 U+1F1FC",
      "dial_code": "+250"
    },
    {
      "name": "SÃ£o TomÃ© & PrÃ­ncipe",
      "code": "ST",
      "emoji": "ðŸ‡¸ðŸ‡¹",
      "unicode": "U+1F1F8 U+1F1F9",
      "dial_code": "+239"
    },
    {
      "name": "Senegal",
      "code": "SN",
      "emoji": "ðŸ‡¸ðŸ‡³",
      "unicode": "U+1F1F8 U+1F1F3",
      "dial_code": "+221"
    },
    {
      "name": "Seychelles",
      "code": "SC",
      "emoji": "ðŸ‡¸ðŸ‡¨",
      "unicode": "U+1F1F8 U+1F1E8",
      "dial_code": "+248"
    },
    {
      "name": "Sierra Leone",
      "code": "SL",
      "emoji": "ðŸ‡¸ðŸ‡±",
      "unicode": "U+1F1F8 U+1F1F1",
      "dial_code": "+232"
    },
    {
      "name": "Somalia",
      "code": "SO",
      "emoji": "ðŸ‡¸ðŸ‡´",
      "unicode": "U+1F1F8 U+1F1F4",
      "dial_code": "+252"
    },
    {
      "name": "South Africa",
      "code": "ZA",
      "emoji": "ðŸ‡¿ðŸ‡¦",
      "unicode": "U+1F1FF U+1F1E6",
      "dial_code": "+27"
    },
    {
      "name": "South Sudan",
      "code": "SS",
      "emoji": "ðŸ‡¸ðŸ‡¸",
      "unicode": "U+1F1F8 U+1F1F8",
      "dial_code": "+211"
    },
    {
      "name": "St. Helena",
      "code": "SH",
      "emoji": "ðŸ‡¸ðŸ‡­",
      "unicode": "U+1F1F8 U+1F1ED",
      "dial_code": "+290"
    },
    {
      "name": "Sudan",
      "code": "SD",
      "emoji": "ðŸ‡¸ðŸ‡©",
      "unicode": "U+1F1F8 U+1F1E9",
      "dial_code": "+249"
    },
    {
      "name": "Tanzania",
      "code": "TZ",
      "emoji": "ðŸ‡¹ðŸ‡¿",
      "unicode": "U+1F1F9 U+1F1FF",
      "dial_code": "+255"
    },
    {
      "name": "Togo",
      "code": "TG",
      "emoji": "ðŸ‡¹ðŸ‡¬",
      "unicode": "U+1F1F9 U+1F1EC",
      "dial_code": "+228"
    },
    {
      "name": "Tunisia",
      "code": "TN",
      "emoji": "ðŸ‡¹ðŸ‡³",
      "unicode": "U+1F1F9 U+1F1F3",
      "dial_code": "+216"
    },
    {
      "name": "Uganda",
      "code": "UG",
      "emoji": "ðŸ‡ºðŸ‡¬",
      "unicode": "U+1F1FA U+1F1EC",
      "dial_code": "+256"
    },
    {
      "name": "Zambia",
      "code": "ZM",
      "emoji": "ðŸ‡¿ðŸ‡²",
      "unicode": "U+1F1FF U+1F1F2",
      "dial_code": "+260"
    },
    {
      "name": "Zimbabwe",
      "code": "ZW",
      "emoji": "ðŸ‡¿ðŸ‡¼",
      "unicode": "U+1F1FF U+1F1FC",
      "dial_code": "+263"
    }
  ],
  "Oceania": [
    {
      "name": "American Samoa",
      "code": "AS",
      "emoji": "ðŸ‡¦ðŸ‡¸",
      "unicode": "U+1F1E6 U+1F1F8",
      "dial_code": "+1684"
    },
    {
      "name": "Australia",
      "code": "AU",
      "emoji": "ðŸ‡¦ðŸ‡º",
      "unicode": "U+1F1E6 U+1F1FA",
      "dial_code": "+61"
    },
    {
      "name": "Christmas Island",
      "code": "CX",
      "emoji": "ðŸ‡¨ðŸ‡½",
      "unicode": "U+1F1E8 U+1F1FD",
      "dial_code": "+61"
    },
    {
      "name": "Cocos (Keeling) Islands",
      "code": "CC",
      "emoji": "ðŸ‡¨ðŸ‡¨",
      "unicode": "U+1F1E8 U+1F1E8",
      "dial_code": "+61"
    },
    {
      "name": "Cook Islands",
      "code": "CK",
      "emoji": "ðŸ‡¨ðŸ‡°",
      "unicode": "U+1F1E8 U+1F1F0",
      "dial_code": "+682"
    },
    {
      "name": "Fiji",
      "code": "FJ",
      "emoji": "ðŸ‡«ðŸ‡¯",
      "unicode": "U+1F1EB U+1F1EF",
      "dial_code": "+679"
    },
    {
      "name": "French Polynesia",
      "code": "PF",
      "emoji": "ðŸ‡µðŸ‡«",
      "unicode": "U+1F1F5 U+1F1EB",
      "dial_code": "+689"
    },
    {
      "name": "Guam",
      "code": "GU",
      "emoji": "ðŸ‡¬ðŸ‡º",
      "unicode": "U+1F1EC U+1F1FA",
      "dial_code": "+1671"
    },
    {
      "name": "Kiribati",
      "code": "KI",
      "emoji": "ðŸ‡°ðŸ‡®",
      "unicode": "U+1F1F0 U+1F1EE",
      "dial_code": "+686"
    },
    {
      "name": "Marshall Islands",
      "code": "MH",
      "emoji": "ðŸ‡²ðŸ‡­",
      "unicode": "U+1F1F2 U+1F1ED",
      "dial_code": "+692"
    },
    {
      "name": "Micronesia",
      "code": "FM",
      "emoji": "ðŸ‡«ðŸ‡²",
      "unicode": "U+1F1EB U+1F1F2",
      "dial_code": "+691"
    },
    {
      "name": "Nauru",
      "code": "NR",
      "emoji": "ðŸ‡³ðŸ‡·",
      "unicode": "U+1F1F3 U+1F1F7",
      "dial_code": "+674"
    },
    {
      "name": "New Caledonia",
      "code": "NC",
      "emoji": "ðŸ‡³ðŸ‡¨",
      "unicode": "U+1F1F3 U+1F1E8",
      "dial_code": "+687"
    },
    {
      "name": "New Zealand",
      "code": "NZ",
      "emoji": "ðŸ‡³ðŸ‡¿",
      "unicode": "U+1F1F3 U+1F1FF",
      "dial_code": "+64"
    },
    {
      "name": "Niue",
      "code": "NU",
      "emoji": "ðŸ‡³ðŸ‡º",
      "unicode": "U+1F1F3 U+1F1FA",
      "dial_code": "+683"
    },
    {
      "name": "Norfolk Island",
      "code": "NF",
      "emoji": "ðŸ‡³ðŸ‡«",
      "unicode": "U+1F1F3 U+1F1EB",
      "dial_code": "+672"
    },
    {
      "name": "Northern Mariana Islands",
      "code": "MP",
      "emoji": "ðŸ‡²ðŸ‡µ",
      "unicode": "U+1F1F2 U+1F1F5",
      "dial_code": "+1670"
    },
    {
      "name": "Palau",
      "code": "PW",
      "emoji": "ðŸ‡µðŸ‡¼",
      "unicode": "U+1F1F5 U+1F1FC",
      "dial_code": "+680"
    },
    {
      "name": "Papua New Guinea",
      "code": "PG",
      "emoji": "ðŸ‡µðŸ‡¬",
      "unicode": "U+1F1F5 U+1F1EC",
      "dial_code": "+675"
    },
    {
      "name": "Pitcairn Islands",
      "code": "PN",
      "emoji": "ðŸ‡µðŸ‡³",
      "unicode": "U+1F1F5 U+1F1F3",
      "dial_code": "+872"
    },
    {
      "name": "Samoa",
      "code": "WS",
      "emoji": "ðŸ‡¼ðŸ‡¸",
      "unicode": "U+1F1FC U+1F1F8",
      "dial_code": "+685"
    },
    {
      "name": "Solomon Islands",
      "code": "SB",
      "emoji": "ðŸ‡¸ðŸ‡§",
      "unicode": "U+1F1F8 U+1F1E7",
      "dial_code": "+677"
    },
    {
      "name": "Tokelau",
      "code": "TK",
      "emoji": "ðŸ‡¹ðŸ‡°",
      "unicode": "U+1F1F9 U+1F1F0",
      "dial_code": "+690"
    },
    {
      "name": "Tonga",
      "code": "TO",
      "emoji": "ðŸ‡¹ðŸ‡´",
      "unicode": "U+1F1F9 U+1F1F4",
      "dial_code": "+676"
    },
    {
      "name": "Tuvalu",
      "code": "TV",
      "emoji": "ðŸ‡¹ðŸ‡»",
      "unicode": "U+1F1F9 U+1F1FB",
      "dial_code": "+688"
    },
    {
      "name": "Vanuatu",
      "code": "VU",
      "emoji": "ðŸ‡»ðŸ‡º",
      "unicode": "U+1F1FB U+1F1FA",
      "dial_code": "+678"
    },
    {
      "name": "Wallis & Futuna",
      "code": "WF",
      "emoji": "ðŸ‡¼ðŸ‡«",
      "unicode": "U+1F1FC U+1F1EB",
      "dial_code": "+681"
    }
  ],
  "North America": [
    {
      "name": "Anguilla",
      "code": "AI",
      "emoji": "ðŸ‡¦ðŸ‡®",
      "unicode": "U+1F1E6 U+1F1EE",
      "dial_code": "+1264"
    },
    {
      "name": "Antigua & Barbuda",
      "code": "AG",
      "emoji": "ðŸ‡¦ðŸ‡¬",
      "unicode": "U+1F1E6 U+1F1EC",
      "dial_code": "+1268"
    },
    {
      "name": "Aruba",
      "code": "AW",
      "emoji": "ðŸ‡¦ðŸ‡¼",
      "unicode": "U+1F1E6 U+1F1FC",
      "dial_code": "+297"
    },
    {
      "name": "Bahamas",
      "code": "BS",
      "emoji": "ðŸ‡§ðŸ‡¸",
      "unicode": "U+1F1E7 U+1F1F8",
      "dial_code": "+1242"
    },
    {
      "name": "Barbados",
      "code": "BB",
      "emoji": "ðŸ‡§ðŸ‡§",
      "unicode": "U+1F1E7 U+1F1E7",
      "dial_code": "+1246"
    },
    {
      "name": "Belize",
      "code": "BZ",
      "emoji": "ðŸ‡§ðŸ‡¿",
      "unicode": "U+1F1E7 U+1F1FF",
      "dial_code": "+501"
    },
    {
      "name": "Bermuda",
      "code": "BM",
      "emoji": "ðŸ‡§ðŸ‡²",
      "unicode": "U+1F1E7 U+1F1F2",
      "dial_code": "+1441"
    },
    {
      "name": "British Virgin Islands",
      "code": "VG",
      "emoji": "ðŸ‡»ðŸ‡¬",
      "unicode": "U+1F1FB U+1F1EC",
      "dial_code": "+1284"
    },
    {
      "name": "Canada",
      "code": "CA",
      "emoji": "ðŸ‡¨ðŸ‡¦",
      "unicode": "U+1F1E8 U+1F1E6",
      "dial_code": "+1"
    },
    {
      "name": "Cayman Islands",
      "code": "KY",
      "emoji": "ðŸ‡°ðŸ‡¾",
      "unicode": "U+1F1F0 U+1F1FE",
      "dial_code": "+ 345"
    },
    {
      "name": "Costa Rica",
      "code": "CR",
      "emoji": "ðŸ‡¨ðŸ‡·",
      "unicode": "U+1F1E8 U+1F1F7",
      "dial_code": "+506"
    },
    {
      "name": "Cuba",
      "code": "CU",
      "emoji": "ðŸ‡¨ðŸ‡º",
      "unicode": "U+1F1E8 U+1F1FA",
      "dial_code": "+53"
    },
    {
      "name": "Dominica",
      "code": "DM",
      "emoji": "ðŸ‡©ðŸ‡²",
      "unicode": "U+1F1E9 U+1F1F2",
      "dial_code": "+1767"
    },
    {
      "name": "Dominican Republic",
      "code": "DO",
      "emoji": "ðŸ‡©ðŸ‡´",
      "unicode": "U+1F1E9 U+1F1F4",
      "dial_code": "+1849"
    },
    {
      "name": "El Salvador",
      "code": "SV",
      "emoji": "ðŸ‡¸ðŸ‡»",
      "unicode": "U+1F1F8 U+1F1FB",
      "dial_code": "+503"
    },
    {
      "name": "Greenland",
      "code": "GL",
      "emoji": "ðŸ‡¬ðŸ‡±",
      "unicode": "U+1F1EC U+1F1F1",
      "dial_code": "+299"
    },
    {
      "name": "Grenada",
      "code": "GD",
      "emoji": "ðŸ‡¬ðŸ‡©",
      "unicode": "U+1F1EC U+1F1E9",
      "dial_code": "+1473"
    },
    {
      "name": "Guadeloupe",
      "code": "GP",
      "emoji": "ðŸ‡¬ðŸ‡µ",
      "unicode": "U+1F1EC U+1F1F5",
      "dial_code": "+590"
    },
    {
      "name": "Guatemala",
      "code": "GT",
      "emoji": "ðŸ‡¬ðŸ‡¹",
      "unicode": "U+1F1EC U+1F1F9",
      "dial_code": "+502"
    },
    {
      "name": "Haiti",
      "code": "HT",
      "emoji": "ðŸ‡­ðŸ‡¹",
      "unicode": "U+1F1ED U+1F1F9",
      "dial_code": "+509"
    },
    {
      "name": "Honduras",
      "code": "HN",
      "emoji": "ðŸ‡­ðŸ‡³",
      "unicode": "U+1F1ED U+1F1F3",
      "dial_code": "+504"
    },
    {
      "name": "Jamaica",
      "code": "JM",
      "emoji": "ðŸ‡¯ðŸ‡²",
      "unicode": "U+1F1EF U+1F1F2",
      "dial_code": "+1876"
    },
    {
      "name": "Martinique",
      "code": "MQ",
      "emoji": "ðŸ‡²ðŸ‡¶",
      "unicode": "U+1F1F2 U+1F1F6",
      "dial_code": "+596"
    },
    {
      "name": "Mexico",
      "code": "MX",
      "emoji": "ðŸ‡²ðŸ‡½",
      "unicode": "U+1F1F2 U+1F1FD",
      "dial_code": "+52"
    },
    {
      "name": "Montserrat",
      "code": "MS",
      "emoji": "ðŸ‡²ðŸ‡¸",
      "unicode": "U+1F1F2 U+1F1F8",
      "dial_code": "+1664"
    },
    {
      "name": "Nicaragua",
      "code": "NI",
      "emoji": "ðŸ‡³ðŸ‡®",
      "unicode": "U+1F1F3 U+1F1EE",
      "dial_code": "+505"
    },
    {
      "name": "Panama",
      "code": "PA",
      "emoji": "ðŸ‡µðŸ‡¦",
      "unicode": "U+1F1F5 U+1F1E6",
      "dial_code": "+507"
    },
    {
      "name": "Puerto Rico",
      "code": "PR",
      "emoji": "ðŸ‡µðŸ‡·",
      "unicode": "U+1F1F5 U+1F1F7",
      "dial_code": "+1939"
    },
    {
      "name": "St. BarthÃ©lemy",
      "code": "BL",
      "emoji": "ðŸ‡§ðŸ‡±",
      "unicode": "U+1F1E7 U+1F1F1",
      "dial_code": "+590"
    },
    {
      "name": "St. Kitts & Nevis",
      "code": "KN",
      "emoji": "ðŸ‡°ðŸ‡³",
      "unicode": "U+1F1F0 U+1F1F3",
      "dial_code": "+1869"
    },
    {
      "name": "St. Lucia",
      "code": "LC",
      "emoji": "ðŸ‡±ðŸ‡¨",
      "unicode": "U+1F1F1 U+1F1E8",
      "dial_code": "+1758"
    },
    {
      "name": "St. Martin",
      "code": "MF",
      "emoji": "ðŸ‡²ðŸ‡«",
      "unicode": "U+1F1F2 U+1F1EB",
      "dial_code": "+590"
    },
    {
      "name": "St. Pierre & Miquelon",
      "code": "PM",
      "emoji": "ðŸ‡µðŸ‡²",
      "unicode": "U+1F1F5 U+1F1F2",
      "dial_code": "+508"
    },
    {
      "name": "St. Vincent & Grenadines",
      "code": "VC",
      "emoji": "ðŸ‡»ðŸ‡¨",
      "unicode": "U+1F1FB U+1F1E8",
      "dial_code": "+1784"
    },
    {
      "name": "Trinidad & Tobago",
      "code": "TT",
      "emoji": "ðŸ‡¹ðŸ‡¹",
      "unicode": "U+1F1F9 U+1F1F9",
      "dial_code": "+1868"
    },
    {
      "name": "Turks & Caicos Islands",
      "code": "TC",
      "emoji": "ðŸ‡¹ðŸ‡¨",
      "unicode": "U+1F1F9 U+1F1E8",
      "dial_code": "+1649"
    },
    {
      "name": "U.S. Virgin Islands",
      "code": "VI",
      "emoji": "ðŸ‡»ðŸ‡®",
      "unicode": "U+1F1FB U+1F1EE",
      "dial_code": "+1340"
    },
    {
      "name": "United States",
      "code": "US",
      "emoji": "ðŸ‡ºðŸ‡¸",
      "unicode": "U+1F1FA U+1F1F8",
      "dial_code": "+1"
    }
  ],
  "South America": [
    {
      "name": "Argentina",
      "code": "AR",
      "emoji": "ðŸ‡¦ðŸ‡·",
      "unicode": "U+1F1E6 U+1F1F7",
      "dial_code": "+54"
    },
    {
      "name": "Bolivia",
      "code": "BO",
      "emoji": "ðŸ‡§ðŸ‡´",
      "unicode": "U+1F1E7 U+1F1F4",
      "dial_code": "+591"
    },
    {
      "name": "Brazil",
      "code": "BR",
      "emoji": "ðŸ‡§ðŸ‡·",
      "unicode": "U+1F1E7 U+1F1F7",
      "dial_code": "+55"
    },
    {
      "name": "Chile",
      "code": "CL",
      "emoji": "ðŸ‡¨ðŸ‡±",
      "unicode": "U+1F1E8 U+1F1F1",
      "dial_code": "+56"
    },
    {
      "name": "Colombia",
      "code": "CO",
      "emoji": "ðŸ‡¨ðŸ‡´",
      "unicode": "U+1F1E8 U+1F1F4",
      "dial_code": "+57"
    },
    {
      "name": "Ecuador",
      "code": "EC",
      "emoji": "ðŸ‡ªðŸ‡¨",
      "unicode": "U+1F1EA U+1F1E8",
      "dial_code": "+593"
    },
    {
      "name": "Falkland Islands",
      "code": "FK",
      "emoji": "ðŸ‡«ðŸ‡°",
      "unicode": "U+1F1EB U+1F1F0",
      "dial_code": "+500"
    },
    {
      "name": "French Guiana",
      "code": "GF",
      "emoji": "ðŸ‡¬ðŸ‡«",
      "unicode": "U+1F1EC U+1F1EB",
      "dial_code": "+594"
    },
    {
      "name": "Guyana",
      "code": "GY",
      "emoji": "ðŸ‡¬ðŸ‡¾",
      "unicode": "U+1F1EC U+1F1FE",
      "dial_code": "+595"
    },
    {
      "name": "Paraguay",
      "code": "PY",
      "emoji": "ðŸ‡µðŸ‡¾",
      "unicode": "U+1F1F5 U+1F1FE",
      "dial_code": "+595"
    },
    {
      "name": "Peru",
      "code": "PE",
      "emoji": "ðŸ‡µðŸ‡ª",
      "unicode": "U+1F1F5 U+1F1EA",
      "dial_code": "+51"
    },
    {
      "name": "South Georgia & South Sandwich Islands",
      "code": "GS",
      "emoji": "ðŸ‡¬ðŸ‡¸",
      "unicode": "U+1F1EC U+1F1F8",
      "dial_code": "+500"
    },
    {
      "name": "Suriname",
      "code": "SR",
      "emoji": "ðŸ‡¸ðŸ‡·",
      "unicode": "U+1F1F8 U+1F1F7",
      "dial_code": "+597"
    },
    {
      "name": "Uruguay",
      "code": "UY",
      "emoji": "ðŸ‡ºðŸ‡¾",
      "unicode": "U+1F1FA U+1F1FE",
      "dial_code": "+598"
    },
    {
      "name": "Venezuela",
      "code": "VE",
      "emoji": "ðŸ‡»ðŸ‡ª",
      "unicode": "U+1F1FB U+1F1EA",
      "dial_code": "+58"
    }
  ],
  "Antarctica": [
    {
      "name": "Antarctica",
      "code": "AQ",
      "emoji": "ðŸ‡¦ðŸ‡¶",
      "unicode": "U+1F1E6 U+1F1F6",
      "dial_code": "+672"
    }
  ]
}
